INTELSAT 21 (IS-21)     
1 38749U 12045A   26164.53659345 -.00000273  00000+0  00000+0 0  9993
2 38749   0.0118 303.5247 0001260 154.4437 299.0599  1.00271455 50489
INTELSAT 23 (IS-23)     
1 38867U 12057A   26164.39623021 -.00000273  00000+0  00000+0 0  9993
2 38867   0.0127 336.2609 0000140 223.8287 151.2410  1.00267445 49916
FM-6                    
1 39360U 13058A   26164.38246110  .00000000  00000+0  00000+0 0  9990
2 39360   0.0324  47.5792 0002093 126.5568 108.9013  1.00262606 46031
INTELSAT 30 (IS-30)     
1 40271U 14062A   26164.38662111 -.00000139  00000+0  00000+0 0  9996
2 40271   0.0281  50.6303 0001199 330.0403 285.1629  1.00271680  6753
DIRECTV 14              
1 40333U 14078B   26164.59965462 -.00000114  00000+0  00000+0 0  9993
2 40333   0.0106   6.1325 0000355 267.2738 105.1420  1.00270025 42003
DIRECTV 15              
1 40663U 15026A   26164.59896128 -.00000092  00000+0  00000+0 0  9990
2 40663   0.0165  20.8190 0000150 233.0087 120.8396  1.00272298 40422
SKY MEXICO-1            
1 40664U 15026B   26164.53243344 -.00000223  00000+0  00000+0 0  9997
2 40664   0.0093 320.8751 0001940 143.3383 270.5142  1.00271084 40412
INTELSAT 34 (IS-34)     
1 40874U 15039A   26164.46577310 -.00000274  00000+0  00000+0 0  9995
2 40874   0.0100 340.9631 0000437 354.3420  38.6709  1.00272523 39598
INTELSAT 31 (IS-31)     
1 41581U 16035A   26164.38662111 -.00000139  00000+0  00000+0 0  9993
2 41581   0.0166 272.7078 0001106 329.1677  63.9652  1.00272070 36649
INTELSAT 36 (IS-36)     
1 41747U 16053A   26164.56163262 -.00000013  00000+0  00000+0 0  9991
2 41747   0.0117 355.0288 0001922 337.8302 199.6971  1.00270996 35920
INTELSAT 32E (IS-32E)   
1 41945U 17007B   26164.46802645 -.00000257  00000+0  00000+0 0  9995
2 41945   0.0044  43.5837 0000670 270.6035  72.9130  1.00274763 34187
INTELSAT 35E (IS-35E)   
1 42818U 17041A   26164.46993313  .00000000  00000+0  00000+0 0  9991
2 42818   0.0254 359.8275 0001534  79.0863 317.5585  1.00268650 32772
INTELSAT 37E (IS-37E)   
1 42950U 17059A   26164.36642117 -.00000128  00000+0  00000+0 0  9991
2 42950   0.0162  54.0390 0002348  46.2870 275.2787  1.00272722 32024
AZERSPACE 2 (IS-38)     
1 43632U 18074A   26164.48570781  .00000148  00000+0  00000+0 0  9998
2 43632   0.0172 347.0088 0001167  95.3625  39.3971  1.00270498 28413
HORIZONS-3E             
1 43633U 18074B   26164.58154120 -.00000019  00000+0  00000+0 0  9993
2 43633   0.0185 161.3627 0000973 110.0556   8.8285  1.00271145 28303
AT&T T-16               
1 44333U 19034A   26164.59939462 -.00000104  00000+0  00000+0 0  9994
2 44333   0.0181  54.2728 0000774 238.9403  83.6314  1.00271721 25591
INTELSAT 39 (IS-39)     
1 44476U 19049B   26164.48900116  .00000045  00000+0  00000+0 0  9993
2 44476   0.0017 349.3933 0000876 319.9486 190.4512  1.00270508 25091
GALAXY 30 (G-30)        
1 46114U 20056C   26164.59454126  .00000048  00000+0  00000+0 0  9994
2 46114   0.0179   0.2114 0002059  88.0552 262.6765  1.00270191 21252
GALAXY 33 (G-33)        
1 54026U 22128A   26164.52168671  .00000090  00000+0  00000+0 0  9994
2 54026   0.0102 326.4165 0001613 119.3295 230.9031  1.00270749 13709
GALAXY 34 (G-34)        
1 54027U 22128B   26163.95197634  .00000072  00000+0  00000+0 0  9992
2 54027   0.0151  10.9191 0001425  95.2882   8.7862  1.00272983 13876
GALAXY 31 (G-31)        
1 54243U 22153A   26164.59540793  .00000000  00000+0  00000+0 0  9990
2 54243   0.0193   4.3076 0000966  72.0961 278.8404  1.00270070  7095
GALAXY 32 (G-32)        
1 54244U 22153B   26163.46063806 -.00000159  00000+0  00000+0 0  9997
2 54244   0.0112  15.0853 0002028  18.1712 302.3687  1.00271325 13092
GALAXY 35 (G-35)        
1 54741U 22170A   26164.60086796  .00000000  00000+0  00000+0 0  9992
2 54741   0.0201 351.5323 0001762  93.6284 299.9584  1.00269466 12852
GALAXY 36 (G-36)        
1 54742U 22170B   26164.60173463 -.00000174  00000+0  00000+0 0  9994
2 54742   0.0412 126.2656 0002479 317.0469 306.2336  1.00271234 12737
GALAXY 37 (G-37)        
1 57493U 23112A   26164.59419459  .00000059  00000+0  00000+0 0  9994
2 57493   0.0167  45.7807 0001733  34.0349 269.0002  1.00270868 10509
