OBJECT_NAME,OBJECT_ID,EPOCH,MEAN_MOTION,ECCENTRICITY,INCLINATION,RA_OF_ASC_NODE,ARG_OF_PERICENTER,MEAN_ANOMALY,EPHEMERIS_TYPE,CLASSIFICATION_TYPE,NORAD_CAT_ID,ELEMENT_SET_NO,REV_AT_EPOCH,BSTAR,MEAN_MOTION_DOT,MEAN_MOTION_DDOT
INTELSAT 21 (IS-21),2012-045A,2026-06-13T12:52:41.674080,1.00271455,.00012601,0.0118,303.5247,154.4437,299.0599,0,U,38749,999,5048,0,-.273E-5,0
INTELSAT 23 (IS-23),2012-057A,2026-06-13T09:30:34.290144,1.00267445,.00001408,0.0127,336.2609,223.8287,151.2410,0,U,38867,999,4991,0,-.273E-5,0
FM-6,2013-058A,2026-06-13T09:10:44.639040,1.00262606,.00020932,0.0324,47.5792,126.5568,108.9013,0,U,39360,999,4603,0,0,0
INTELSAT 30 (IS-30),2014-062A,2026-06-13T09:16:44.063904,1.00271680,.00011993,0.0281,50.6303,330.0403,285.1629,0,U,40271,999,675,0,-.139E-5,0
DIRECTV 14,2014-078B,2026-06-13T14:23:30.159168,1.00270025,.00003555,0.0106,6.1325,267.2738,105.1420,0,U,40333,999,4200,0,-.114E-5,0
DIRECTV 15,2015-026A,2026-06-13T14:22:30.254592,1.00272298,.00001504,0.0165,20.8190,233.0087,120.8396,0,U,40663,999,4042,0,-.92E-6,0
SKY MEXICO-1,2015-026B,2026-06-13T12:46:42.249216,1.00271084,.000194,0.0093,320.8751,143.3383,270.5142,0,U,40664,999,4041,0,-.223E-5,0
INTELSAT 34 (IS-34),2015-039A,2026-06-13T11:10:42.795840,1.00272523,.00004374,0.0100,340.9631,354.3420,38.6709,0,U,40874,999,3959,0,-.274E-5,0
INTELSAT 31 (IS-31),2016-035A,2026-06-13T09:16:44.063904,1.00272070,.00011063,0.0166,272.7078,329.1677,63.9652,0,U,41581,999,3664,0,-.139E-5,0
INTELSAT 36 (IS-36),2016-053A,2026-06-13T13:28:45.058368,1.00270996,.00019221,0.0117,355.0288,337.8302,199.6971,0,U,41747,999,3592,0,-.13E-6,0
INTELSAT 32E (IS-32E),2017-007B,2026-06-13T11:13:57.485280,1.00274763,.000067,0.0044,43.5837,270.6035,72.9130,0,U,41945,999,3418,0,-.257E-5,0
INTELSAT 35E (IS-35E),2017-041A,2026-06-13T11:16:42.222432,1.00268650,.00015344,0.0254,359.8275,79.0863,317.5585,0,U,42818,999,3277,0,0,0
INTELSAT 37E (IS-37E),2017-059A,2026-06-13T08:47:38.789088,1.00272722,.00023484,0.0162,54.0390,46.2870,275.2787,0,U,42950,999,3202,0,-.128E-5,0
AZERSPACE 2 (IS-38),2018-074A,2026-06-13T11:39:25.154784,1.00270498,.00011676,0.0172,347.0088,95.3625,39.3971,0,U,43632,999,2841,0,.148E-5,0
HORIZONS-3E,2018-074B,2026-06-13T13:57:25.159680,1.00271145,.00009731,0.0185,161.3627,110.0556,8.8285,0,U,43633,999,2830,0,-.19E-6,0
AT&T T-16,2019-034A,2026-06-13T14:23:07.695168,1.00271721,.00007744,0.0181,54.2728,238.9403,83.6314,0,U,44333,999,2559,0,-.104E-5,0
INTELSAT 39 (IS-39),2019-049B,2026-06-13T11:44:09.700224,1.00270508,.00008762,0.0017,349.3933,319.9486,190.4512,0,U,44476,999,2509,0,.45E-6,0
GALAXY 30 (G-30),2020-056C,2026-06-13T14:16:08.364864,1.00270191,.00020596,0.0179,0.2114,88.0552,262.6765,0,U,46114,999,2125,0,.48E-6,0
GALAXY 33 (G-33),2022-128A,2026-06-13T12:31:13.731744,1.00270749,.00016136,0.0102,326.4165,119.3295,230.9031,0,U,54026,999,1370,0,.9E-6,0
GALAXY 34 (G-34),2022-128B,2026-06-12T22:50:50.755776,1.00272983,.00014255,0.0151,10.9191,95.2882,8.7862,0,U,54027,999,1387,0,.72E-6,0
GALAXY 31 (G-31),2022-153A,2026-06-13T14:17:23.245152,1.00270070,.00009663,0.0193,4.3076,72.0961,278.8404,0,U,54243,999,709,0,0,0
GALAXY 32 (G-32),2022-153B,2026-06-12T11:03:19.128384,1.00271325,.0002028,0.0112,15.0853,18.1712,302.3687,0,U,54244,999,1309,0,-.159E-5,0
GALAXY 35 (G-35),2022-170A,2026-06-13T14:25:14.991744,1.00269466,.00017626,0.0201,351.5323,93.6284,299.9584,0,U,54741,999,1285,0,0,0
GALAXY 36 (G-36),2022-170B,2026-06-13T14:26:29.872032,1.00271234,.00024797,0.0412,126.2656,317.0469,306.2336,0,U,54742,999,1273,0,-.174E-5,0
GALAXY 37 (G-37),2023-112A,2026-06-13T14:15:38.412576,1.00270868,.0001733,0.0167,45.7807,34.0349,269.0002,0,U,57493,999,1050,0,.59E-6,0
